M2 PATHFINDER           
1 45727U 20037E   26068.47969609  .00004468  00000+0  32592-3 0  9994
2 45727  97.8158 258.5983 0012405 127.8041 232.4310 15.04175941310501
STARLINK-5397           
1 54871U 22177BD  26068.19569091 -.00000997  00000+0 -58761-4 0  9993
2 54871  43.0056 122.7795 0001434 270.0500  90.0178 15.02538394177037
