[{"OBJECT_NAME":"M2 PATHFINDER","OBJECT_ID":"2020-037E","EPOCH":"2026-03-09T11:30:45.742176","MEAN_MOTION":15.04175941,"ECCENTRICITY":0.00124059,"INCLINATION":97.8158,"RA_OF_ASC_NODE":258.5983,"ARG_OF_PERICENTER":127.8041,"MEAN_ANOMALY":232.431,"EPHEMERIS_TYPE":0,"CLASSIFICATION_TYPE":"U","NORAD_CAT_ID":45727,"ELEMENT_SET_NO":999,"REV_AT_EPOCH":31050,"BSTAR":0.00032591881,"MEAN_MOTION_DOT":4.468e-5,"MEAN_MOTION_DDOT":0},{"OBJECT_NAME":"STARLINK-5397","OBJECT_ID":"2022-177BD","EPOCH":"2026-03-09T04:41:47.694624","MEAN_MOTION":15.02538394,"ECCENTRICITY":0.00014349,"INCLINATION":43.0056,"RA_OF_ASC_NODE":122.7795,"ARG_OF_PERICENTER":270.05,"MEAN_ANOMALY":90.0178,"EPHEMERIS_TYPE":0,"CLASSIFICATION_TYPE":"U","NORAD_CAT_ID":54871,"ELEMENT_SET_NO":999,"REV_AT_EPOCH":17703,"BSTAR":-5.8760845e-5,"MEAN_MOTION_DOT":-9.97e-6,"MEAN_MOTION_DDOT":0}]
